MALLIGYONG-1            
1 58400U 23179A   24042.87720239  .00009222  00000+0  40157-3 0  9993
2 58400  97.4219 291.5844 0015464 356.3281   3.7839 15.22332219 12511
